0 COSMOS 2251 DEB
1 35587U 93036AME 13283.88314875  .00000834  00000-0  15536-3 0  3778
2 35587 074.0077 354.3843 0118214 202.1294 157.4748 14.62407156241843
0 COSMOS 2251 DEB
1 35587U 93036AME 13286.55109954  .00000874  00000-0  16278-3 0  3784
2 35587 074.0064 349.2669 0116948 196.6179 163.1160 14.62413035242238
0 COSMOS 2251 DEB
1 35587U 93036AME 13287.85086234  .00000895  00000-0  16612-3 0  3799
2 35587 074.0103 346.7763 0118407 193.2749 166.5273 14.62416195242420
0 COSMOS 2251 DEB
1 35587U 93036AME 13290.45038609  .00000947  00000-0  17489-3 0  3805
2 35587 074.0141 341.7896 0119978 187.2141 172.7501 14.62422904242807
0 COSMOS 2251 DEB
1 35587U 93036AME 13292.50263229  .00000968  00000-0  17852-3 0  3819
2 35587 074.0150 337.8544 0120371 182.6588 177.3998 14.62427624243105
0 COSMOS 2251 DEB
1 35587U 93036AME 13295.44417956  .00001003  00000-0  18498-3 0  3822
2 35587 074.0126 332.2065 0119632 176.6581 183.5519 14.62434514243530
